EXPRESS-AMU1            
1 41191U 15082A   23138.66910194  .00000156  00000+0  00000+0 0  9995
2 41191   0.0155 353.3783 0002699  55.3781 104.2868  1.00272227 26983
GAOFEN 4                
1 41194U 15083A   23138.72964949 -.00000333  00000+0  00000+0 0  9991
2 41194   0.0783  77.8663 0003703 120.8871  45.7091  1.00267651 27245
BELINTERSAT-1           
1 41238U 16001A   23139.10396597  .00000108  00000+0  00000+0 0  9991
2 41238   0.0168 110.6519 0001339  35.9521 178.8229  1.00271617 26942
IRNSS-1E                
1 41241U 16003A   23137.87786733 -.00000300  00000+0  00000+0 0  9999
2 41241  30.7339  79.4622 0018584 181.4376  42.2520  1.00270930 26785
EUTELSAT 9B             
1 41310U 16005A   23139.08660444  .00000063  00000+0  00000+0 0  9998
2 41310   0.0600  79.6367 0001370 298.1045 258.9248  1.00270212 26826
SES-9                   
1 41380U 16013A   23138.50624729 -.00000344  00000+0  00000+0 0  9999
2 41380   0.0102 303.6970 0002474 134.5147  88.2558  1.00265174 26461
EUTELSAT 65 WEST A      
1 41382U 16014A   23138.25118948 -.00000276  00000+0  00000+0 0  9999
2 41382   0.0957  64.2870 0002090   1.1508 195.4812  1.00271051 26256
IRNSS-1F                
1 41384U 16015A   23138.26438220  .00000162  00000+0  00000+0 0  9994
2 41384   2.7171 135.2028 0019524 195.4851  32.5769  1.00271865 26375
BEIDOU-2 IGSO-6         
1 41434U 16021A   23138.79633470 -.00000186  00000+0  00000+0 0  9996
2 41434  58.5926  49.3761 0045637 224.8186 342.7373  1.00260776 26195
IRNSS-1G                
1 41469U 16027A   23138.52950529 -.00000331  00000+0  00000+0 0  9990
2 41469   2.6189 137.1345 0006767 313.6770 105.2681  1.00275696 25892
JCSAT-2B                
1 41471U 16028A   23138.51438404 -.00000165  00000+0  00000+0 0  9991
2 41471   0.0184 308.8113 0000774  96.1570 170.1387  1.00268551 25802
THAICOM 8               
1 41552U 16031A   23138.40952059 -.00000121  00000+0  00000+0 0  9992
2 41552   0.0725  55.3273 0004809 356.4659  49.9746  1.00270514 25430
INTELSAT 31 (IS-31)     
1 41581U 16035A   23138.53269685 -.00000150  00000+0  00000+0 0  9990
2 41581   0.0171 261.2935 0001935 326.9860 104.3863  1.00270441 25393
BEIDOU-2 G7             
1 41586U 16037A   23138.72705604 -.00000354  00000+0  00000+0 0  9990
2 41586   1.6250  66.3859 0008857 348.9423 193.0152  1.00277065 25509
ABS-2A (MONGOLSAT-1)    
1 41588U 16038A   23139.01368931 -.00000082  00000+0  00000+0 0  9992
2 41588   0.0255 291.0841 0001819  11.2989  13.6949  1.00267471 25405
EUTELSAT 117 WEST B     
1 41589U 16038B   23138.45883049 -.00000012  00000+0  00000+0 0  9995
2 41589   0.0141 115.1255 0000255 232.8014 296.1356  1.00276622 25417
BRISAT                  
1 41591U 16039A   23138.51438404 -.00000196  00000+0  00000+0 0  9990
2 41591   0.0188 301.0371 0001993 108.5765 161.9988  1.00271481 25359
ECHOSTAR 18             
1 41592U 16039B   23138.30743803 -.00000281  00000+0  00000+0 0  9995
2 41592   0.0186 306.8844 0001238 106.1756 231.9885  1.00270899 25336
MUOS-5                  
1 41622U 16041A   23139.02688333 -.00000157  00000+0  00000+0 0  9990
2 41622   4.8202 298.5997 0194222 242.9735 319.4953  1.00271758 25781
TIANTONG-1 1            
1 41725U 16048A   23138.50041749 -.00000319  00000+0  00000+0 0  9997
2 41725   2.2923  13.9017 0005065  11.3678 132.2408  1.00271872 24983
JCSAT-16                
1 41729U 16050A   23139.09702319 -.00000336  00000+0  00000+0 0  9995
2 41729   0.1064  92.6912 0000898 224.6131  54.4520  1.00546252 24785
USA 270                 
1 41744U 16052A   23137.14044055 -.00000081  00000+0  00000+0 0  9991
2 41744   1.2948  91.6116 0001630  10.1555 349.6105  1.00149124 16835
USA 271                 
1 41745U 16052B   23135.17823258  .00000148  00000+0  00000+0 0  9996
2 41745   1.2618  91.5282 0000045 251.8437 339.7368  1.00428659  7413
INTELSAT 36 (IS-36)     
1 41747U 16053A   23138.80216833 -.00000023  00000+0  00000+0 0  9990
2 41747   0.0146 356.4030 0001040 354.8106 242.2823  1.00271624 24652
INTELSAT 33E (IS-33E)   
1 41748U 16053B   23139.01507841  .00000050  00000+0  00000+0 0  9996
2 41748   0.0141 309.9290 0001477 130.5987 221.3206  1.00273231 24939
INSAT-3DR               
1 41752U 16054A   23139.01368931 -.00000076  00000+0  00000+0 0  9996
2 41752   0.1283  94.3995 0011020 181.9515  39.0016  1.00271864 24518
GSAT-18                 
1 41793U 16060A   23139.01368931 -.00000076  00000+0  00000+0 0  9998
2 41793   0.0746  98.7076 0001526 306.4342 270.2114  1.00271350 24244
SKY MUSTER 2 (NBN1B)    
1 41794U 16060B   23138.30744010 -.00000244  00000+0  00000+0 0  9993
2 41794   0.0153 301.0811 0001498 110.7323  79.3950  1.00270512 24231
HIMAWARI-9              
1 41836U 16064A   23138.99215939 -.00000273  00000+0  00000+0 0  9994
2 41836   0.0618 103.6468 0000773 324.1152 306.5843  1.00271159 24025
SHIJIAN-17 (SJ-17)      
1 41838U 16065A   23139.70271537 -.00000359  00000+0  00000+0 0  9998
2 41838   2.8807  85.9380 0001404 149.6156   9.8989  1.00271984 23959
GOES 16                 
1 41866U 16071A   23138.33382708 -.00000248  00000+0  00000+0 0  9994
2 41866   0.0263  48.9869 0000247  20.9037 210.8496  1.00271436 23814
TIANLIAN 1-04           
1 41869U 16072A   23138.53313215  .00000032  00000+0  00000+0 0  9997
2 41869   0.1959 264.2976 0027190 226.6182 113.8841  1.00268039 24029
WGS F8 (USA 272)        
1 41879U 16075A   23138.51438404 -.00000202  00000+0  00000+0 0  9997
2 41879   0.0107 344.6019 0000022 165.2820  61.0444  1.00269851 23538
FENGYUN 4A              
1 41882U 16077A   23139.00813216 -.00000329  00000+0  00000+0 0  9996
2 41882   0.0980 296.8794 0003943 214.2370 192.9200  1.00276117 23693
ECHOSTAR 19             
1 41893U 16079A   23138.39493797 -.00000137  00000+0  00000+0 0  9996
2 41893   0.0155 319.9128 0001215  89.6425 231.3288  1.00269734 23424
JCSAT-110A (JCSAT-15)   
1 41903U 16082A   23139.45320078 -.00000349  00000+0  00000+0 0  9996
2 41903   0.0186 316.2318 0000563  66.8675 126.9694  1.00268774 23502
STAR ONE D1             
1 41904U 16082B   23138.34493840 -.00000210  00000+0  00000+0 0  9999
2 41904   0.0179  82.6505 0001905 326.6279 226.6671  1.00269721 23488
TJS-2                   
1 41911U 17001A   23138.79879833 -.00000005  00000+0  00000+0 0  9990
2 41911   0.3979  87.4719 0004171 115.1729  27.6062  1.00272737 23446
SBIRS GEO-4 (USA 273)   
1 41937U 17004A   23138.39493797 -.00000145  00000+0  00000+0 0  9993
2 41937   1.7648 330.2943 0001947  74.7186 236.1771  1.00271681 23312
HISPASAT 36W-1          
1 41942U 17006A   23139.09216478 -.00000243  00000+0  00000+0 0  9997
2 41942   0.0058 339.7489 0001004  80.0225 173.9247  1.00272755 23243
TELKOM 3S               
1 41944U 17007A   23138.78802587 -.00000362  00000+0  00000+0 0  9999
2 41944   0.0129 297.6372 0002166 113.4803 226.7723  1.00270661 22856
INTELSAT 32E (IS-32E)   
1 41945U 17007B   23138.38035811 -.00000269  00000+0  00000+0 0  9990
2 41945   0.0117 333.9148 0000311 311.9130  43.7105  1.00269339 22948
ECHOSTAR 23             
1 42070U 17014A   23138.40118976 -.00000056  00000+0  00000+0 0  9999
2 42070   0.0169 302.2909 0001849 108.6711 219.3853  1.00269994 22636
WGS F9 (USA 275)        
1 42075U 17016A   23138.48973100 -.00000096  00000+0  00000+0 0  9996
2 42075   0.0154 300.2577 0000240 330.5752 129.3827  1.00271120 22601
SES-10                  
1 42432U 17017A   23138.25118948 -.00000272  00000+0  00000+0 0  9996
2 42432   0.0446  87.1670 0002717 333.1434 198.8892  1.00270221 22439
CHINASAT 16 (SJ-13)     
1 42662U 17018A   23139.00257800 -.00000351  00000+0  00000+0 0  9995
2 42662   0.0767  94.5125 0004066 150.5139 102.8447  1.00271081 22457
KOREASAT 7              
1 42691U 17023A   23139.00257800 -.00000361  00000+0  00000+0 0  9994
2 42691   0.0334  26.9731 0001377 359.2864 326.9878  1.00273285 22169
SGDC                    
1 42692U 17023B   23137.55523718 -.00000250  00000+0  00000+0 0  9994
2 42692   0.0225  54.9621 0002124   4.7778 300.2811  1.00269988 22128
GSAT-9                  
1 42695U 17024A   23139.09702319 -.00000285  00000+0  00000+0 0  9993
2 42695   0.0437 272.8966 0002484 104.8251 351.0659  1.00269705 22150
INMARSAT 5-F4           
1 42698U 17025A   23138.77157052  .00000076  00000+0  00000+0 0  9996
2 42698   0.0180 319.0182 0000549 285.0505 326.3626  1.00271089 21972
SES-15                  
1 42709U 17026A   23138.45049435  .00000061  00000+0  00000+0 0  9994
2 42709   0.0329  34.8227 0000158 255.6416 338.4489  1.00265417 22859
QZS-2 (MICHIBIKI-2)     
1 42738U 17028A   23137.20619274 -.00000245  00000+0  00000+0 0  9999
2 42738  41.2197 259.4401 0762614 268.9509 279.3649  1.00293989 21846
VIASAT-2                
1 42740U 17029A   23138.37792247 -.00000264  00000+0  00000+0 0  9995
2 42740   0.0151 281.7723 0000124 353.6709  26.5106  1.00271463 21890
EUTELSAT 172B           
1 42741U 17029B   23138.53382657 -.00000005  00000+0  00000+0 0  9997
2 42741   0.0585 141.9192 0000157 112.2703 345.9370  1.00271510 22433
GSAT-19                 
1 42747U 17031A   23139.10396597  .00000126  00000+0  00000+0 0  9991
2 42747   0.0138 281.2629 0007297 147.2736 253.2843  1.00273642 21851
ECHOSTAR 21             
1 42749U 17032A   23139.08660444  .00000065  00000+0  00000+0 0  9998
2 42749   3.2871 313.3387 0002266  90.2875 234.3072  1.00272885 21843
BULGARIASAT-1           
1 42801U 17038A   23139.05813315  .00000013  00000+0  00000+0 0  9990
2 42801   0.0014  81.9354 0002844 342.3600 195.0051  1.00272760 21625
HELLAS-SAT 3            
1 42814U 17040A   23138.55257838  .00000153  00000+0  00000+0 0  9998
2 42814   0.0585 338.0732 0004971  57.3686  78.4624  1.00268799 21535
GSAT-17                 
1 42815U 17040B   23138.40396875 -.00000258  00000+0  00000+0 0  9995
2 42815   0.0124 296.6677 0003655  17.5074 160.5872  1.00274100 21507
